STARLINK-31692          
1 59577U 24076P   26068.18028968  .00000913  00000+0  42720-4 0  9997
2 59577  43.0042  11.9462 0001470 261.8483  98.2202 15.27578376106422
FLOCK 4G-24             
1 62637U 25009AE  26068.72509072  .00010513  00000+0  38996-3 0  9991
2 62637  97.4061 151.5140 0001802 280.2808  79.8228 15.27784978 63732
